FLOCK 4G-13             
1 62621U 25009N   26117.18794391  .00077199  00000+0  20306-2 0  9997
2 62621  97.3973 199.7944 0005671 146.6125 213.5478 15.38268715 71143
FLOCK 4G-9              
1 62622U 25009P   26117.17950801  .00011955  00000+0  45120-3 0  9997
2 62622  97.3963 198.5399 0005973 135.0615 225.1109 15.27162374 71079
FLOCK 4G-7              
1 62624U 25009R   26117.20363135  .00013206  00000+0  48214-3 0  9999
2 62624  97.3950 198.8524 0004227 128.5707 231.5911 15.28242699 71117
FLOCK 4G-12             
1 62625U 25009S   26117.19289319  .00014743  00000+0  53996-3 0  9999
2 62625  97.4024 199.3235 0005730 126.4101 233.7668 15.28105732 71110
FLOCK 4G-11             
1 62629U 25009W   26117.18539693  .00013456  00000+0  49040-3 0  9990
2 62629  97.3924 198.9592 0004235 130.1073 230.0539 15.28294353 71128
PELICAN-2               
1 62631U 25009Y   26117.18890054  .00059734  00000+0  14646-2 0  9996
2 62631  97.3614 208.0019 0003642  95.8111 264.3550 15.40509057 71706
FLOCK 4G-26             
1 62633U 25009AA  26117.20483477  .00012697  00000+0  46200-3 0  9997
2 62633  97.4021 199.4690 0004993 120.1491 240.0244 15.28359662 71120
FLOCK 4G-28             
1 62634U 25009AB  26117.18894825  .00011007  00000+0  33685-3 0  9995
2 62634  97.4024 201.5802 0003424 116.9833 243.1759 15.34001095 71266
FLOCK 4G-20             
1 62636U 25009AD  26117.17189595  .00101614  00000+0  21910-2 0  9998
2 62636  97.3891 200.4482 0004179 167.9433 192.1915 15.44187507 71228
FLOCK 4G-24             
1 62637U 25009AE  26117.17341115  .00014000  00000+0  50064-3 0  9992
2 62637  97.4024 199.6826 0004584 110.7932 249.3799 15.28908242 71133
FLOCK 4G-3              
1 62639U 25009AG  26117.20387388  .00011319  00000+0  41291-3 0  9992
2 62639  97.4029 199.4852 0004509 116.7283 243.4419 15.28307708 71111
FLOCK 4G-27             
1 62641U 25009AJ  26117.15585692  .00014521  00000+0  52911-3 0  9996
2 62641  97.3941 198.8859 0003765 120.2160 239.9453 15.28287161 71100
FLOCK 4G-29             
1 62642U 25009AK  26117.21191260  .00012308  00000+0  44735-3 0  9994
2 62642  97.4024 199.4506 0004499 113.6780 246.4933 15.28405958 71112
FLOCK 4G-22             
1 62645U 25009AN  26116.76497237  .00012354  00000+0  45102-3 0  9999
2 62645  97.4011 199.0711 0003987 114.9958 245.1696 15.28261423 71060
FLOCK 4G-25             
1 62646U 25009AP  26117.20720014  .00011465  00000+0  41635-3 0  9991
2 62646  97.4016 199.5589 0003536 120.1189 240.0402 15.28455083 71133
FLOCK 4G-23             
1 62647U 25009AQ  26117.18169738  .00047783  00000+0  16996-2 0  9992
2 62647  97.3943 199.0419 0002634 135.7356 224.4095 15.28820699 71127
FLOCK 4G-34             
1 62650U 25009AT  26117.20135727  .00013048  00000+0  47647-3 0  9995
2 62650  97.3967 199.1166 0003440 119.8320 240.3262 15.28241766 71122
